start=new Date('2022-06-01T00:00:00.000Z').valueOf();
sats=[{"ELEMENT_SET_NO":"999","CENTER_NAME":"EARTH","REF_FRAME":"TEME","INCLINATION":"53.0573","TLE_LINE2":"2 45380  53.0573 213.7528 0001626  33.8122 326.2971 15.06404134122280","ARG_OF_PERICENTER":"33.8122","APOAPSIS":"548.327","RA_OF_ASC_NODE":"213.7528","SEMIMAJOR_AXIS":"6925.336","MEAN_MOTION_DDOT":"0.0000000000000","BSTAR":"0.00003307700000","ECCENTRICITY":"0.00016260","PERIAPSIS":"546.075","FILE":"3474044","PERIOD":"95.592","RCS_SIZE":"LARGE","EPOCH":"2022-05-31T10:54:59.499648","NORAD_CAT_ID":"45380","SITE":"AFETR","MEAN_MOTION_DOT":"0.00000211","TIME_SYSTEM":"UTC","COUNTRY_CODE":"US","GP_ID":"205005932","CLASSIFICATION_TYPE":"U","TLE_LINE1":"1 45380U 20019W   22151.45485532  .00000211  00000-0  33077-4 0  9997","LAUNCH_DATE":"2020-03-18","OBJECT_NAME":"STARLINK-1207","OBJECT_TYPE":"PAYLOAD","OBJECT_ID":"2020-019W","EPHEMERIS_TYPE":"0","MEAN_ANOMALY":"326.2971","REV_AT_EPOCH":"12228","MEAN_ELEMENT_THEORY":"SGP4","DECAY_DATE":null,"MEAN_MOTION":"15.06404134"},{"FILE":"3473984","PERIAPSIS":"546.282","ECCENTRICITY":"0.00013570","BSTAR":"0.00015819000000","SITE":"AFETR","NORAD_CAT_ID":"45381","RCS_SIZE":"LARGE","PERIOD":"95.592","EPOCH":"2022-05-31T12:46:26.548608","INCLINATION":"53.0560","REF_FRAME":"TEME","CENTER_NAME":"EARTH","ELEMENT_SET_NO":"999","MEAN_MOTION_DDOT":"0.0000000000000","SEMIMAJOR_AXIS":"6925.357","APOAPSIS":"548.161","RA_OF_ASC_NODE":"213.4087","TLE_LINE2":"2 45381  53.0560 213.4087 0001357  81.5284 278.5859 15.06397352122281","ARG_OF_PERICENTER":"81.5284","EPHEMERIS_TYPE":"0","OBJECT_ID":"2020-019X","OBJECT_TYPE":"PAYLOAD","OBJECT_NAME":"STARLINK-1258","MEAN_MOTION":"15.06397352","MEAN_ELEMENT_THEORY":"SGP4","DECAY_DATE":null,"MEAN_ANOMALY":"278.5859","REV_AT_EPOCH":"12228","COUNTRY_CODE":"US","TIME_SYSTEM":"UTC","MEAN_MOTION_DOT":"0.00002075","LAUNCH_DATE":"2020-03-18","TLE_LINE1":"1 45381U 20019X   22151.53225172  .00002075  00000-0  15819-3 0  9992","CLASSIFICATION_TYPE":"U","GP_ID":"205004112"},{"GP_ID":"205026068","CLASSIFICATION_TYPE":"U","LAUNCH_DATE":"2020-03-18","TLE_LINE1":"1 45382U 20019Y   22151.17841645 -.00002273  00000-0 -13374-3 0  9998","MEAN_MOTION_DOT":"-0.00002273","TIME_SYSTEM":"UTC","COUNTRY_CODE":"US","MEAN_ANOMALY":"289.8016","REV_AT_EPOCH":"12205","DECAY_DATE":null,"MEAN_ELEMENT_THEORY":"SGP4","MEAN_MOTION":"15.06394229","OBJECT_TYPE":"PAYLOAD","OBJECT_NAME":"STARLINK-1264","OBJECT_ID":"2020-019Y","EPHEMERIS_TYPE":"0","TLE_LINE2":"2 45382  53.0523 215.0057 0001561  70.3141 289.8016 15.06394229122056","ARG_OF_PERICENTER":"70.3141","RA_OF_ASC_NODE":"215.0057","APOAPSIS":"548.312","SEMIMAJOR_AXIS":"6925.366","MEAN_MOTION_DDOT":"0.0000000000000","ELEMENT_SET_NO":"999","CENTER_NAME":"EARTH","REF_FRAME":"TEME","INCLINATION":"53.0523","RCS_SIZE":"LARGE","PERIOD":"95.593","EPOCH":"2022-05-31T04:16:55.181280","NORAD_CAT_ID":"45382","SITE":"AFETR","BSTAR":"-0.00013374000000","ECCENTRICITY":"0.00015610","PERIAPSIS":"546.150","FILE":"3474118"},{"RCS_SIZE":"LARGE","EPOCH":"2022-05-31T20:33:32.196096","PERIOD":"95.592","SITE":"AFETR","NORAD_CAT_ID":"45383","ECCENTRICITY":"0.00015750","BSTAR":"0.00033145000000","FILE":"3474485","PERIAPSIS":"546.117","RA_OF_ASC_NODE":"211.9604","APOAPSIS":"548.298","TLE_LINE2":"2 45383  53.0541 211.9604 0001575  75.2591 284.8573 15.06401983122338","ARG_OF_PERICENTER":"75.2591","SEMIMAJOR_AXIS":"6925.342","MEAN_MOTION_DDOT":"0.0000000000000","CENTER_NAME":"EARTH","ELEMENT_SET_NO":"999","INCLINATION":"53.0541","REF_FRAME":"TEME","REV_AT_EPOCH":"12233","MEAN_ANOMALY":"284.8573","MEAN_MOTION":"15.06401983","DECAY_DATE":null,"MEAN_ELEMENT_THEORY":"SGP4","OBJECT_NAME":"STARLINK-1266","OBJECT_TYPE":"PAYLOAD","EPHEMERIS_TYPE":"0","OBJECT_ID":"2020-019Z","CLASSIFICATION_TYPE":"U","GP_ID":"205039505","TLE_LINE1":"1 45383U 20019Z   22151.85662264  .00004659  00000-0  33145-3 0  9998","LAUNCH_DATE":"2020-03-18","COUNTRY_CODE":"US","TIME_SYSTEM":"UTC","MEAN_MOTION_DOT":"0.00004659"},{"FILE":"3474118","PERIAPSIS":"546.070","ECCENTRICITY":"0.00016730","BSTAR":"0.00004049400000","SITE":"AFETR","NORAD_CAT_ID":"45384","RCS_SIZE":"LARGE","EPOCH":"2022-05-31T04:20:50.813952","PERIOD":"95.592","INCLINATION":"53.0554","REF_FRAME":"TEME","CENTER_NAME":"EARTH","ELEMENT_SET_NO":"999","SEMIMAJOR_AXIS":"6925.364","MEAN_MOTION_DDOT":"0.0000000000000","APOAPSIS":"548.388","RA_OF_ASC_NODE":"214.9792","TLE_LINE2":"2 45384  53.0554 214.9792 0001673  71.3271 288.7900 15.06394957122233","ARG_OF_PERICENTER":"71.3271","EPHEMERIS_TYPE":"0","OBJECT_ID":"2020-019AA","OBJECT_NAME":"STARLINK-1267","OBJECT_TYPE":"PAYLOAD","MEAN_MOTION":"15.06394957","MEAN_ELEMENT_THEORY":"SGP4","DECAY_DATE":null,"REV_AT_EPOCH":"12223","MEAN_ANOMALY":"288.7900","TIME_SYSTEM":"UTC","COUNTRY_CODE":"US","MEAN_MOTION_DOT":"0.00000322","LAUNCH_DATE":"2020-03-18","TLE_LINE1":"1 45384U 20019AA  22151.18114368  .00000322  00000-0  40494-4 0  9991","CLASSIFICATION_TYPE":"U","GP_ID":"205027065"},{"PERIOD":"95.592","RCS_SIZE":"LARGE","EPOCH":"2022-05-31T04:27:30.487392","SITE":"AFETR","NORAD_CAT_ID":"45386","ECCENTRICITY":"0.00009560","BSTAR":"0.00000247170000","FILE":"3474118","PERIAPSIS":"546.552","RA_OF_ASC_NODE":"214.9751","APOAPSIS":"547.876","TLE_LINE2":"2 45386  53.0548 214.9751 0000956  59.8228 300.2855 15.06399770122236","ARG_OF_PERICENTER":"59.8228","SEMIMAJOR_AXIS":"6925.349","MEAN_MOTION_DDOT":"0.0000000000000","CENTER_NAME":"EARTH","ELEMENT_SET_NO":"999","INCLINATION":"53.0548","REF_FRAME":"TEME","MEAN_ANOMALY":"300.2855","REV_AT_EPOCH":"12223","MEAN_MOTION":"15.06399770","DECAY_DATE":null,"MEAN_ELEMENT_THEORY":"SGP4","OBJECT_TYPE":"PAYLOAD","OBJECT_NAME":"STARLINK-1272","EPHEMERIS_TYPE":"0","OBJECT_ID":"2020-019AC","CLASSIFICATION_TYPE":"U","GP_ID":"205027814","LAUNCH_DATE":"2020-03-18","TLE_LINE1":"1 45386U 20019AC  22151.18576953 -.00000244  00000-0  24717-5 0  9990","TIME_SYSTEM":"UTC","COUNTRY_CODE":"US","MEAN_MOTION_DOT":"-0.00000244"},{"TLE_LINE2":"2 45387  53.0550 213.3740 0001400  68.3577 291.7561 15.06400451122268","ARG_OF_PERICENTER":"68.3577","RA_OF_ASC_NODE":"213.3740","APOAPSIS":"548.182","MEAN_MOTION_DDOT":"0.0000000000000","SEMIMAJOR_AXIS":"6925.347","ELEMENT_SET_NO":"999","CENTER_NAME":"EARTH","REF_FRAME":"TEME","INCLINATION":"53.0550","RCS_SIZE":"LARGE","EPOCH":"2022-05-31T12:57:03.740832","PERIOD":"95.592","NORAD_CAT_ID":"45387","SITE":"AFETR","BSTAR":"0.00003434400000","ECCENTRICITY":"0.00014000","PERIAPSIS":"546.243","FILE":"3473994","GP_ID":"205004221","CLASSIFICATION_TYPE":"U","LAUNCH_DATE":"2020-03-18","TLE_LINE1":"1 45387U 20019AD  22151.53962663  .00000230  00000-0  34344-4 0  9997","MEAN_MOTION_DOT":"0.00000230","COUNTRY_CODE":"US","TIME_SYSTEM":"UTC","MEAN_ANOMALY":"291.7561","REV_AT_EPOCH":"12226","DECAY_DATE":null,"MEAN_ELEMENT_THEORY":"SGP4","MEAN_MOTION":"15.06400451","OBJECT_TYPE":"PAYLOAD","OBJECT_NAME":"STARLINK-1274","OBJECT_ID":"2020-019AD","EPHEMERIS_TYPE":"0"},{"MEAN_MOTION":"15.06394459","DECAY_DATE":null,"MEAN_ELEMENT_THEORY":"SGP4","REV_AT_EPOCH":"12202","MEAN_ANOMALY":"293.0353","EPHEMERIS_TYPE":"0","OBJECT_ID":"2020-019AE","OBJECT_TYPE":"PAYLOAD","OBJECT_NAME":"STARLINK-1280","TLE_LINE1":"1 45388U 20019AE  22151.64098635  .00000782  00000-0  71401-4 0  9996","LAUNCH_DATE":"2020-03-18","CLASSIFICATION_TYPE":"U","GP_ID":"205040059","TIME_SYSTEM":"UTC","COUNTRY_CODE":"US","MEAN_MOTION_DOT":"0.00000782","SITE":"AFETR","NORAD_CAT_ID":"45388","RCS_SIZE":"LARGE","EPOCH":"2022-05-31T15:23:01.220640","PERIOD":"95.592","FILE":"3474488","PERIAPSIS":"546.145","ECCENTRICITY":"0.00015680","BSTAR":"0.00007140100000","MEAN_MOTION_DDOT":"0.0000000000000","SEMIMAJOR_AXIS":"6925.366","RA_OF_ASC_NODE":"232.9153","APOAPSIS":"548.316","TLE_LINE2":"2 45388  53.0546 232.9153 0001568  67.0801 293.0353 15.06394459122028","ARG_OF_PERICENTER":"67.0801","INCLINATION":"53.0546","REF_FRAME":"TEME","CENTER_NAME":"EARTH","ELEMENT_SET_NO":"999"},{"SEMIMAJOR_AXIS":"6925.395","MEAN_MOTION_DDOT":"0.0000000000000","TLE_LINE2":"2 45389  53.0558 213.3178 0001780  59.4976 300.6189 15.06384711122297","ARG_OF_PERICENTER":"59.4976","APOAPSIS":"548.493","RA_OF_ASC_NODE":"213.3178","REF_FRAME":"TEME","INCLINATION":"53.0558","ELEMENT_SET_NO":"999","CENTER_NAME":"EARTH","NORAD_CAT_ID":"45389","SITE":"AFETR","EPOCH":"2022-05-31T13:18:18.679104","RCS_SIZE":"LARGE","PERIOD":"95.593","PERIAPSIS":"546.028","FILE":"3473993","BSTAR":"-0.00009921400000","ECCENTRICITY":"0.00017800","LAUNCH_DATE":"2020-03-18","TLE_LINE1":"1 45389U 20019AF  22151.55438286 -.00001758  00000-0 -99214-4 0  9995","GP_ID":"205004206","CLASSIFICATION_TYPE":"U","MEAN_MOTION_DOT":"-0.00001758","TIME_SYSTEM":"UTC","COUNTRY_CODE":"US","MEAN_ELEMENT_THEORY":"SGP4","DECAY_DATE":null,"MEAN_MOTION":"15.06384711","MEAN_ANOMALY":"300.6189","REV_AT_EPOCH":"12229","OBJECT_ID":"2020-019AF","EPHEMERIS_TYPE":"0","OBJECT_TYPE":"PAYLOAD","OBJECT_NAME":"STARLINK-1283"},{"MEAN_MOTION_DOT":"-0.00000722","TIME_SYSTEM":"UTC","COUNTRY_CODE":"US","LAUNCH_DATE":"2020-03-18","TLE_LINE1":"1 45390U 20019AG  22151.19683363 -.00000722  00000-0 -29599-4 0  9994","GP_ID":"204990002","CLASSIFICATION_TYPE":"U","OBJECT_ID":"2020-019AG","EPHEMERIS_TYPE":"0","OBJECT_NAME":"STARLINK-1284","OBJECT_TYPE":"PAYLOAD","MEAN_ELEMENT_THEORY":"SGP4","DECAY_DATE":null,"MEAN_MOTION":"15.06394646","REV_AT_EPOCH":"12223","MEAN_ANOMALY":"317.0179","REF_FRAME":"TEME","INCLINATION":"53.0528","ELEMENT_SET_NO":"999","CENTER_NAME":"EARTH","SEMIMAJOR_AXIS":"6925.365","MEAN_MOTION_DDOT":"0.0000000000000","TLE_LINE2":"2 45390  53.0528 214.9119 0001842  43.0954 317.0179 15.06394646122235","ARG_OF_PERICENTER":"43.0954","APOAPSIS":"548.506","RA_OF_ASC_NODE":"214.9119","PERIAPSIS":"545.954","FILE":"3473387","BSTAR":"-0.00002959900000","ECCENTRICITY":"0.00018420","NORAD_CAT_ID":"45390","SITE":"AFETR","RCS_SIZE":"LARGE","PERIOD":"95.592","EPOCH":"2022-05-31T04:43:26.425632"}];
